{
"type": "FeatureCollection",
"name": "major_fac",
"crs": { "type": "name", "properties": { "name": "urn:ogc:def:crs:EPSG::2272" } },
"features": [
{ "type": "Feature", "properties": { "trifd": "15025SSCLR400ST", "name_x": "USS-CLAIRTON PLANT", "address": "400 STATE ST MS 71", "city": "CLAIRTON", "parent": "US STEEL CORP", "lat": 40.294941, "lon": -79.874537, "air_lbs": 775872.72, "rank": 1, "tri_top": true, "name_y": "USS-CLAIRTON PLANT", "rsei_score": 83152.966207446007, "tri_pounds": 9251497.6, "rsei_top": true, "major": true }, "geometry": { "type": "Point", "coordinates": [ 1375931.076254346873611, 357428.582982397056185 ] } },
{ "type": "Feature", "properties": { "trifd": "15104SSDGRBRADD", "name_x": "USS MON VALLEY WORKS - EDGAR THOMSON PLANT", "address": "BRADDOCK AVE & 13TH ST", "city": "BRADDOCK", "parent": "US STEEL CORP", "lat": 40.397262, "lon": -79.859713, "air_lbs": 96883.69, "rank": 2, "tri_top": true, "name_y": "USS MON VALLEY WORKS - EDGAR THOMSON PLANT", "rsei_score": 5536.45606, "tri_pounds": 3311954.97, "rsei_top": true, "major": true }, "geometry": { "type": "Point", "coordinates": [ 1380955.342793952673674, 394593.737596949446015 ] } },
{ "type": "Feature", "properties": { "trifd": "15034SSRVNPOBOX", "name_x": "USS MON VALLEY WORKS - IRVIN PLANT", "address": "CAMP HOLLOW RD", "city": "WEST MIFFLIN", "parent": "US STEEL CORP", "lat": 40.340524, "lon": -79.914952, "air_lbs": 73871.6, "rank": 3, "tri_top": true, "name_y": "USS MON VALLEY WORKS - IRVIN PLANT", "rsei_score": 552.6938761, "tri_pounds": 166807.34, "rsei_top": false, "major": true }, "geometry": { "type": "Point", "coordinates": [ 1365067.937653398374096, 374302.897709271579515 ] } },
{ "type": "Feature", "properties": { "trifd": "15088HRCLSSTATE", "name_x": "SYNTHOMER JEFFERSON HILLS LLC", "address": "2200 STATE HWY 837", "city": "JEFFERSON HILLS", "parent": "YULE CATTO INC.", "lat": 40.267336, "lon": -79.903751, "air_lbs": 50394.0, "rank": 4, "tri_top": true, "name_y": "SYNTHOMER JEFFERSON HILLS LLC", "rsei_score": 32.2987816, "tri_pounds": 1879081.3, "rsei_top": false, "major": true }, "geometry": { "type": "Point", "coordinates": [ 1367539.178299703169614, 347572.702082823030651 ] } },
{ "type": "Feature", "properties": { "trifd": "15104MSDVT13BRA", "name_x": "TMS INTERNATIONAL LLC", "address": "1300 BRADDOCK AVE", "city": "BRADDOCK", "parent": "TMS INTERNATIONAL CORP", "lat": 40.397191, "lon": -79.859663, "air_lbs": 27877.98, "rank": 6, "tri_top": false, "name_y": "TMS INTERNATIONAL LLC", "rsei_score": 36569.940431499999, "tri_pounds": 21076.455, "rsei_top": true, "major": true }, "geometry": { "type": "Point", "coordinates": [ 1380968.647068334743381, 394567.547266739304177 ] } },
{ "type": "Feature", "properties": { "trifd": "15144PPGND125CO", "name_x": "PPG INDUSTRIESINC-SPRINGDALE COMPLEX", "address": "125 COLFAX ST", "city": "SPRINGDALE", "parent": "PPG INDUSTRIES INC", "lat": 40.537373, "lon": -79.784005, "air_lbs": 22186.09, "rank": 7, "tri_top": false, "name_y": "PPG INDUSTRIESINC-SPRINGDALE COMPLEX", "rsei_score": 77704.927905302466, "tri_pounds": 759739.474, "rsei_top": true, "major": true }, "geometry": { "type": "Point", "coordinates": [ 1403211.368727321736515, 445128.117009248177055 ] } },
{ "type": "Feature", "properties": { "trifd": "15225NVLLC2800N", "name_x": "NEVILLE CHEMICAL CO", "address": "2800 NEVILLE RD", "city": "PITTSBURGH", "parent": null, "lat": 40.500626, "lon": -80.098238, "air_lbs": 14392.0, "rank": 8, "tri_top": false, "name_y": "NEVILLE CHEMICAL CO", "rsei_score": 7843.5029190939977, "tri_pounds": 35155.0, "rsei_top": true, "major": true }, "geometry": { "type": "Point", "coordinates": [ 1315543.327282607089728, 433912.529849827929866 ] } },
{ "type": "Feature", "properties": { "trifd": "15014LLGHNRIVER", "name_x": "ATI FLAT ROLLED PRODUCTS HOLDINGS LLC", "address": "100 RIVER RD", "city": "BRACKENRIDGE", "parent": "ATI INC", "lat": 40.603477, "lon": -79.736813, "air_lbs": 1419.0, "rank": 15, "tri_top": false, "name_y": "ATI FLAT ROLLED PRODUCTS HOLDINGS LLC", "rsei_score": 12838.631710920001, "tri_pounds": 2364990.7, "rsei_top": true, "major": true }, "geometry": { "type": "Point", "coordinates": [ 1416866.435084719676524, 468905.676116805465426 ] } },
{ "type": "Feature", "properties": { "trifd": "15017CYTMPMAYER", "name_x": "UNIVERSAL STAINLESS & ALLOY PRODUCTS INC", "address": "600 MAYER ST", "city": "BRIDGEVILLE", "parent": "UNIVERSAL STAINLESS & ALLOY PRODUCTS INC", "lat": 40.366381, "lon": -80.100483, "air_lbs": 488.0, "rank": 24, "tri_top": false, "name_y": "UNIVERSAL STAINLESS & ALLOY PRODUCTS INC", "rsei_score": 47409.307944000007, "tri_pounds": 338413.0, "rsei_top": true, "major": true }, "geometry": { "type": "Point", "coordinates": [ 1313617.720980441663414, 385041.160777277720626 ] } },
{ "type": "Feature", "properties": { "trifd": "1511WTHRML5NRTH", "name_x": "WABTEC COMPONENTS LLC FORMERLY THERMAL TRANSFER CORP", "address": "50 N LINDEN ST", "city": "DUQUESNE", "parent": "WABTEC CORP", "lat": 40.378014, "lon": -79.848866, "air_lbs": 260.0, "rank": 25, "tri_top": false, "name_y": "WABTEC COMPONENTS LLC FORMERLY THERMAL TRANSFER CORP", "rsei_score": 250145.632729, "tri_pounds": 219025.0, "rsei_top": true, "major": true }, "geometry": { "type": "Point", "coordinates": [ 1383808.972982767038047, 387511.766541376069654 ] } },
{ "type": "Feature", "properties": { "trifd": "15201MCCNW10948", "name_x": "MCCONWAY & TORLEY LLC PLT 1801", "address": "109 48TH ST", "city": "PITTSBURGH", "parent": "FERROWORKS LLC", "lat": 40.478083, "lon": -79.960683, "air_lbs": 224.52, "rank": 26, "tri_top": false, "name_y": "MCCONWAY & TORLEY LLC PLT 1801", "rsei_score": 12867.228911, "tri_pounds": 501004.0, "rsei_top": true, "major": true }, "geometry": { "type": "Point", "coordinates": [ 1353578.401103765470907, 424715.361932284198701 ] } }
]
}
